{"type": "FeatureCollection", "features": [ {"type": "Feature", "properties": {"norad_id": 34001, "name": "COSMOS 2251 DEB", "group": "cosmos-2251-debris", "lat": -42.68019290969697, "lon": -96.33303036121569, "alt_km": 764.1272910119606, "timestamp": "2025-12-14T03:55:53.181247+00:00", "meta": {"OBJECT_NAME": "COSMOS 2251 DEB", "OBJECT_ID": "1993-036GL", "EPOCH": "2025-12-13T07:00:39.273408", "MEAN_MOTION": 14.3710006, "ECCENTRICITY": 0.00199789, "INCLINATION": 74.0388, "RA_OF_ASC_NODE": 280.5715, "ARG_OF_PERICENTER": 1.3555, "MEAN_ANOMALY": 126.1312, "EPHEMERIS_TYPE": 0, "CLASSIFICATION_TYPE": "U", "NORAD_CAT_ID": 34001, "ELEMENT_SET_NO": 999, "REV_AT_EPOCH": 88154, "BSTAR": 0.00033831961, "MEAN_MOTION_DOT": 9.81e-06, "MEAN_MOTION_DDOT": 0}, "tle": {"line1": "1 34001U 93036GL  25347.29212122  .00000981  00000+0  33832-3 0  9990", "line2": "2 34001  74.0388 280.5715 0019978   1.3555 126.1312 14.37100060881545"}}, "geometry": {"type": "Point", "coordinates": [-96.33303036121569, -42.68019290969697]}}, {"type": "Feature", "properties": {"norad_id": 34003, "name": "COSMOS 2251 DEB", "group": "cosmos-2251-debris", "lat": -65.80347881156541, "lon": -116.69133646057689, "alt_km": 1006.0770673825309, "timestamp": "2025-12-14T03:55:53.181257+00:00", "meta": {"OBJECT_NAME": "COSMOS 2251 DEB", "OBJECT_ID": "1993-036GN", "EPOCH": "2025-12-13T05:43:16.611744", "MEAN_MOTION": 13.84157873, "ECCENTRICITY": 0.02742283, "INCLINATION": 74.0779, "RA_OF_ASC_NODE": 284.3049, "ARG_OF_PERICENTER": 36.2049, "MEAN_ANOMALY": 325.7294, "EPHEMERIS_TYPE": 0, "CLASSIFICATION_TYPE": "U", "NORAD_CAT_ID": 34003, "ELEMENT_SET_NO": 999, "REV_AT_EPOCH": 84432, "BSTAR": 0.003327545, "MEAN_MOTION_DOT": 4.942e-05, "MEAN_MOTION_DDOT": 0}, "tle": {"line1": "1 34003U 93036GN  25347.23838671  .00004942  00000+0  33275-2 0  9990", "line2": "2 34003  74.0779 284.3049 0274228  36.2049 325.7294 13.84157873844325"}}, "geometry": {"type": "Point", "coordinates": [-116.69133646057689, -65.80347881156541]}}, {"type": "Feature", "properties": {"norad_id": 34004, "name": "COSMOS 2251 DEB", "group": "cosmos-2251-debris", "lat": -72.21640420013853, "lon": -166.37246704743816, "alt_km": 723.9057369081565, "timestamp": "2025-12-14T03:55:53.181267+00:00", "meta": {"OBJECT_NAME": "COSMOS 2251 DEB", "OBJECT_ID": "1993-036GP", "EPOCH": "2025-12-13T06:50:23.136864", "MEAN_MOTION": 14.49021639, "ECCENTRICITY": 0.00333866, "INCLINATION": 74.0354, "RA_OF_ASC_NODE": 312.0873, "ARG_OF_PERICENTER": 324.1707, "MEAN_ANOMALY": 35.7213, "EPHEMERIS_TYPE": 0, "CLASSIFICATION_TYPE": "U", "NORAD_CAT_ID": 34004, "ELEMENT_SET_NO": 999, "REV_AT_EPOCH": 88038, "BSTAR": 0.0022896341, "MEAN_MOTION_DOT": 8.732e-05, "MEAN_MOTION_DDOT": 0}, "tle": {"line1": "1 34004U 93036GP  25347.28499001  .00008732  00000+0  22896-2 0  9994", "line2": "2 34004  74.0354 312.0873 0033386 324.1707  35.7213 14.49021639880384"}}, "geometry": {"type": "Point", "coordinates": [-166.37246704743816, -72.21640420013853]}}, {"type": "Feature", "properties": {"norad_id": 34005, "name": "COSMOS 2251 DEB", "group": "cosmos-2251-debris", "lat": 46.00250158359458, "lon": 13.78230947191479, "alt_km": 767.3345236653777, "timestamp": "2025-12-14T03:55:53.181277+00:00", "meta": {"OBJECT_NAME": "COSMOS 2251 DEB", "OBJECT_ID": "1993-036GQ", "EPOCH": "2025-12-13T02:52:11.710272", "MEAN_MOTION": 14.40304714, "ECCENTRICITY": 0.00208597, "INCLINATION": 74.0443, "RA_OF_ASC_NODE": 212.9456, "ARG_OF_PERICENTER": 331.048, "MEAN_ANOMALY": 148.1241, "EPHEMERIS_TYPE": 0, "CLASSIFICATION_TYPE": "U", "NORAD_CAT_ID": 34005, "ELEMENT_SET_NO": 999, "REV_AT_EPOCH": 88384, "BSTAR": 0.00015504742, "MEAN_MOTION_DOT": 4.66e-06, "MEAN_MOTION_DDOT": 0}, "tle": {"line1": "1 34005U 93036GQ  25347.11957998  .00000466  00000+0  15505-3 0  9997", "line2": "2 34005  74.0443 212.9456 0020859 331.0480 148.1241 14.40304714883848"}}, "geometry": {"type": "Point", "coordinates": [13.78230947191479, 46.00250158359458]}}, {"type": "Feature", "properties": {"norad_id": 34006, "name": "COSMOS 2251 DEB", "group": "cosmos-2251-debris", "lat": -42.171662415291365, "lon": 125.40764808309761, "alt_km": 594.0221716880624, "timestamp": "2025-12-14T03:55:53.181287+00:00", "meta": {"OBJECT_NAME": "COSMOS 2251 DEB", "OBJECT_ID": "1993-036GR", "EPOCH": "2025-12-12T12:13:34.301856", "MEAN_MOTION": 14.94733117, "ECCENTRICITY": 0.00115058, "INCLINATION": 74.0534, "RA_OF_ASC_NODE": 143.7492, "ARG_OF_PERICENTER": 89.3897, "MEAN_ANOMALY": 327.4283, "EPHEMERIS_TYPE": 0, "CLASSIFICATION_TYPE": "U", "NORAD_CAT_ID": 34006, "ELEMENT_SET_NO": 999, "REV_AT_EPOCH": 88665, "BSTAR": 0.0051825966, "MEAN_MOTION_DOT": 0.00056797, "MEAN_MOTION_DDOT": 0}, "tle": {"line1": "1 34006U 93036GR  25346.50942479  .00056797  00000+0  51826-2 0  9991", "line2": "2 34006  74.0534 143.7492 0011505  89.3897 327.4283 14.94733117886656"}}, "geometry": {"type": "Point", "coordinates": [125.40764808309761, -42.171662415291365]}}, {"type": "Feature", "properties": {"norad_id": 34007, "name": "COSMOS 2251 DEB", "group": "cosmos-2251-debris", "lat": 71.4845481702762, "lon": 105.3204317347953, "alt_km": 640.9249369415666, "timestamp": "2025-12-14T03:55:53.181297+00:00", "meta": {"OBJECT_NAME": "COSMOS 2251 DEB", "OBJECT_ID": "1993-036GS", "EPOCH": "2025-12-13T06:10:18.516864", "MEAN_MOTION": 14.64794448, "ECCENTRICITY": 0.00443031, "INCLINATION": 74.0196, "RA_OF_ASC_NODE": 345.9005, "ARG_OF_PERICENTER": 120.6882, "MEAN_ANOMALY": 239.8664, "EPHEMERIS_TYPE": 0, "CLASSIFICATION_TYPE": "U", "NORAD_CAT_ID": 34007, "ELEMENT_SET_NO": 999, "REV_AT_EPOCH": 89087, "BSTAR": 0.0011391923, "MEAN_MOTION_DOT": 6.139e-05, "MEAN_MOTION_DDOT": 0}, "tle": {"line1": "1 34007U 93036GS  25347.25715876  .00006139  00000+0  11392-2 0  9993", "line2": "2 34007  74.0196 345.9005 0044303 120.6882 239.8664 14.64794448890871"}}, "geometry": {"type": "Point", "coordinates": [105.3204317347953, 71.4845481702762]}}, {"type": "Feature", "properties": {"norad_id": 34008, "name": "COSMOS 2251 DEB", "group": "cosmos-2251-debris", "lat": 1.5802732715425376, "lon": -31.631158675927903, "alt_km": 770.0566755693826, "timestamp": "2025-12-14T03:55:53.181307+00:00", "meta": {"OBJECT_NAME": "COSMOS 2251 DEB", "OBJECT_ID": "1993-036GT", "EPOCH": "2025-12-13T06:13:06.667680", "MEAN_MOTION": 14.33147044, "ECCENTRICITY": 0.00243352, "INCLINATION": 74.0343, "RA_OF_ASC_NODE": 329.569, "ARG_OF_PERICENTER": 324.6875, "MEAN_ANOMALY": 51.0952, "EPHEMERIS_TYPE": 0, "CLASSIFICATION_TYPE": "U", "NORAD_CAT_ID": 34008, "ELEMENT_SET_NO": 999, "REV_AT_EPOCH": 87972, "BSTAR": 0.0002031531, "MEAN_MOTION_DOT": 5.33e-06, "MEAN_MOTION_DDOT": 0}, "tle": {"line1": "1 34008U 93036GT  25347.25910495  .00000533  00000+0  20315-3 0  9996", "line2": "2 34008  74.0343 329.5690 0024335 324.6875  51.0952 14.33147044879720"}}, "geometry": {"type": "Point", "coordinates": [-31.631158675927903, 1.5802732715425376]}}, {"type": "Feature", "properties": {"norad_id": 34009, "name": "COSMOS 2251 DEB", "group": "cosmos-2251-debris", "lat": 36.11201911904449, "lon": -13.612471488007273, "alt_km": 759.2066574311257, "timestamp": "2025-12-14T03:55:53.181317+00:00", "meta": {"OBJECT_NAME": "COSMOS 2251 DEB", "OBJECT_ID": "1993-036GU", "EPOCH": "2025-12-13T08:12:55.276416", "MEAN_MOTION": 14.33223022, "ECCENTRICITY": 0.00265257, "INCLINATION": 74.0371, "RA_OF_ASC_NODE": 335.8353, "ARG_OF_PERICENTER": 45.2671, "MEAN_ANOMALY": 75.7244, "EPHEMERIS_TYPE": 0, "CLASSIFICATION_TYPE": "U", "NORAD_CAT_ID": 34009, "ELEMENT_SET_NO": 999, "REV_AT_EPOCH": 87954, "BSTAR": 0.00022490234, "MEAN_MOTION_DOT": 5.95e-06, "MEAN_MOTION_DDOT": 0}, "tle": {"line1": "1 34009U 93036GU  25347.34230644  .00000595  00000+0  22490-3 0  9992", "line2": "2 34009  74.0371 335.8353 0026525  45.2671  75.7244 14.33223022879549"}}, "geometry": {"type": "Point", "coordinates": [-13.612471488007273, 36.11201911904449]}}, {"type": "Feature", "properties": {"norad_id": 34010, "name": "COSMOS 2251 DEB", "group": "cosmos-2251-debris", "lat": -11.13918429535576, "lon": -82.91642515177779, "alt_km": 511.9557968508725, "timestamp": "2025-12-14T03:55:53.181327+00:00", "meta": {"OBJECT_NAME": "COSMOS 2251 DEB", "OBJECT_ID": "1993-036GV", "EPOCH": "2025-12-13T02:41:24.959616", "MEAN_MOTION": 15.18776117, "ECCENTRICITY": 0.00049387, "INCLINATION": 73.9965, "RA_OF_ASC_NODE": 282.5284, "ARG_OF_PERICENTER": 68.4433, "MEAN_ANOMALY": 291.729, "EPHEMERIS_TYPE": 0, "CLASSIFICATION_TYPE": "U", "NORAD_CAT_ID": 34010, "ELEMENT_SET_NO": 999, "REV_AT_EPOCH": 89291, "BSTAR": 0.0064816889, "MEAN_MOTION_DOT": 0.00137399, "MEAN_MOTION_DDOT": 0}, "tle": {"line1": "1 34010U 93036GV  25347.11209444  .00137399  00000+0  64817-2 0  9994", "line2": "2 34010  73.9965 282.5284 0004938  68.4433 291.7290 15.18776117892915"}}, "geometry": {"type": "Point", "coordinates": [-82.91642515177779, -11.13918429535576]}}, {"type": "Feature", "properties": {"norad_id": 34011, "name": "COSMOS 2251 DEB", "group": "cosmos-2251-debris", "lat": 73.77950905989071, "lon": 47.682748710510076, "alt_km": 724.8197555446322, "timestamp": "2025-12-14T03:55:53.181337+00:00", "meta": {"OBJECT_NAME": "COSMOS 2251 DEB", "OBJECT_ID": "1993-036GW", "EPOCH": "2025-12-13T07:32:50.978688", "MEAN_MOTION": 14.41775878, "ECCENTRICITY": 0.00355407, "INCLINATION": 74.015, "RA_OF_ASC_NODE": 329.0827, "ARG_OF_PERICENTER": 52.4727, "MEAN_ANOMALY": 307.9649, "EPHEMERIS_TYPE": 0, "CLASSIFICATION_TYPE": "U", "NORAD_CAT_ID": 34011, "ELEMENT_SET_NO": 999, "REV_AT_EPOCH": 87924, "BSTAR": 0.0012588994, "MEAN_MOTION_DOT": 4.118e-05, "MEAN_MOTION_DDOT": 0}, "tle": {"line1": "1 34011U 93036GW  25347.31447892  .00004118  00000+0  12589-2 0  9999", "line2": "2 34011  74.0150 329.0827 0035540  52.4727 307.9649 14.41775878879243"}}, "geometry": {"type": "Point", "coordinates": [47.682748710510076, 73.77950905989071]}}]}